{
"type": "FeatureCollection",
"name": "miovision_installations",
"crs": { "type": "name", "properties": { "name": "urn:ogc:def:crs:OGC:1.3:CRS84" } },
"features": [
{ "type": "Feature", "properties": { "intersection_uid": 1, "intersection_name": "Adelaide / Bathurst", "date_installed": "2017-10-10", "date_decommissioned": null, "street_main": "BATHURST ST", "street_cross": "ADELAIDE ST W", "int_id": 13467569, "px": 1883, "n_leg_restricted": null, "e_leg_restricted": true, "s_leg_restricted": null, "w_leg_restricted": true }, "geometry": { "type": "Point", "coordinates": [ -79.403233, 43.645192 ] } },
{ "type": "Feature", "properties": { "intersection_uid": 2, "intersection_name": "Adelaide / Spadina", "date_installed": "2017-10-13", "date_decommissioned": null, "street_main": "SPADINA AVE", "street_cross": "ADELAIDE ST W", "int_id": 13467308, "px": 274, "n_leg_restricted": null, "e_leg_restricted": true, "s_leg_restricted": null, "w_leg_restricted": null }, "geometry": { "type": "Point", "coordinates": [ -79.39557, 43.64674 ] } },
{ "type": "Feature", "properties": { "intersection_uid": 3, "intersection_name": "Adelaide / Bay", "date_installed": "2017-10-12", "date_decommissioned": null, "street_main": "BAY ST", "street_cross": "ADELAIDE ST W", "int_id": 13466743, "px": 62, "n_leg_restricted": null, "e_leg_restricted": true, "s_leg_restricted": null, "w_leg_restricted": null }, "geometry": { "type": "Point", "coordinates": [ -79.38081, 43.649892 ] } },
{ "type": "Feature", "properties": { "intersection_uid": 4, "intersection_name": "Adelaide / Jarvis", "date_installed": "2017-10-11", "date_decommissioned": null, "street_main": "JARVIS ST", "street_cross": "ADELAIDE ST E", "int_id": 13466455, "px": 4, "n_leg_restricted": null, "e_leg_restricted": true, "s_leg_restricted": null, "w_leg_restricted": null }, "geometry": { "type": "Point", "coordinates": [ -79.372365, 43.651527 ] } },
{ "type": "Feature", "properties": { "intersection_uid": 5, "intersection_name": "Front / Bathurst", "date_installed": "2017-10-10", "date_decommissioned": null, "street_main": "BATHURST ST", "street_cross": "FRONT ST W", "int_id": 13468126, "px": 297, "n_leg_restricted": null, "e_leg_restricted": null, "s_leg_restricted": null, "w_leg_restricted": true }, "geometry": { "type": "Point", "coordinates": [ -79.401421, 43.640749 ] } },
{ "type": "Feature", "properties": { "intersection_uid": 6, "intersection_name": "Front / Spadina", "date_installed": "2017-10-17", "date_decommissioned": null, "street_main": "SPADINA AVE", "street_cross": "FRONT ST W", "int_id": 13467856, "px": 272, "n_leg_restricted": null, "e_leg_restricted": null, "s_leg_restricted": null, "w_leg_restricted": null }, "geometry": { "type": "Point", "coordinates": [ -79.393928, 43.642738 ] } },
{ "type": "Feature", "properties": { "intersection_uid": 7, "intersection_name": "Front / Bay", "date_installed": "2017-10-16", "date_decommissioned": null, "street_main": "BAY ST", "street_cross": "FRONT ST W", "int_id": 13467389, "px": 59, "n_leg_restricted": null, "e_leg_restricted": null, "s_leg_restricted": null, "w_leg_restricted": null }, "geometry": { "type": "Point", "coordinates": [ -79.379134, 43.645987 ] } },
{ "type": "Feature", "properties": { "intersection_uid": 8, "intersection_name": "Front / Jarvis", "date_installed": "2017-10-12", "date_decommissioned": null, "street_main": "FRONT ST", "street_cross": "LOWER JARVIS ST", "int_id": 13466793, "px": 2, "n_leg_restricted": null, "e_leg_restricted": null, "s_leg_restricted": null, "w_leg_restricted": null }, "geometry": { "type": "Point", "coordinates": [ -79.371457, 43.649347 ] } },
{ "type": "Feature", "properties": { "intersection_uid": 9, "intersection_name": "King / Strachan", "date_installed": "2017-10-17", "date_decommissioned": "2020-06-15", "street_main": "KING ST W", "street_cross": "STRACHAN AVE", "int_id": 13467971, "px": 538, "n_leg_restricted": null, "e_leg_restricted": null, "s_leg_restricted": null, "w_leg_restricted": null }, "geometry": { "type": "Point", "coordinates": [ -79.41197, 43.642042 ] } },
{ "type": "Feature", "properties": { "intersection_uid": 10, "intersection_name": "King / Bathurst", "date_installed": "2017-10-03", "date_decommissioned": null, "street_main": "KING ST W", "street_cross": "BATHURST ST", "int_id": 13467722, "px": 201, "n_leg_restricted": null, "e_leg_restricted": null, "s_leg_restricted": null, "w_leg_restricted": null }, "geometry": { "type": "Point", "coordinates": [ -79.402705, 43.643926 ] } },
{ "type": "Feature", "properties": { "intersection_uid": 11, "intersection_name": "King / Portland", "date_installed": "2017-10-23", "date_decommissioned": "2020-06-15", "street_main": "KING ST W", "street_cross": "PORTLAND ST", "int_id": 13467654, "px": 1225, "n_leg_restricted": null, "e_leg_restricted": null, "s_leg_restricted": null, "w_leg_restricted": null }, "geometry": { "type": "Point", "coordinates": [ -79.400097, 43.644453 ] } },
{ "type": "Feature", "properties": { "intersection_uid": 12, "intersection_name": "King / Spadina", "date_installed": "2017-10-17", "date_decommissioned": null, "street_main": "SPADINA AVE", "street_cross": "KING ST W", "int_id": 13467505, "px": 273, "n_leg_restricted": null, "e_leg_restricted": null, "s_leg_restricted": null, "w_leg_restricted": null }, "geometry": { "type": "Point", "coordinates": [ -79.395046, 43.64547 ] } },
{ "type": "Feature", "properties": { "intersection_uid": 13, "intersection_name": "King / Peter", "date_installed": "2017-10-17", "date_decommissioned": "2020-06-15", "street_main": "KING ST W", "street_cross": "BLUE JAYS WAY", "int_id": 13467412, "px": 1152, "n_leg_restricted": null, "e_leg_restricted": null, "s_leg_restricted": null, "w_leg_restricted": null }, "geometry": { "type": "Point", "coordinates": [ -79.392297, 43.646041 ] } },
{ "type": "Feature", "properties": { "intersection_uid": 14, "intersection_name": "King / Simcoe", "date_installed": "2017-10-17", "date_decommissioned": "2020-06-15", "street_main": "KING ST W", "street_cross": "SIMCOE ST", "int_id": 13467173, "px": 199, "n_leg_restricted": null, "e_leg_restricted": null, "s_leg_restricted": true, "w_leg_restricted": null }, "geometry": { "type": "Point", "coordinates": [ -79.38611, 43.647395 ] } },
{ "type": "Feature", "properties": { "intersection_uid": 15, "intersection_name": "King / University", "date_installed": "2017-10-18", "date_decommissioned": null, "street_main": "UNIVERSITY AVE", "street_cross": "KING ST W", "int_id": 13467123, "px": 77, "n_leg_restricted": null, "e_leg_restricted": null, "s_leg_restricted": null, "w_leg_restricted": null }, "geometry": { "type": "Point", "coordinates": [ -79.384806, 43.647662 ] } },
{ "type": "Feature", "properties": { "intersection_uid": 16, "intersection_name": "King / York", "date_installed": "2017-10-23", "date_decommissioned": "2020-06-15", "street_main": "KING ST W", "street_cross": "YORK ST", "int_id": 13467083, "px": 72, "n_leg_restricted": true, "e_leg_restricted": null, "s_leg_restricted": null, "w_leg_restricted": null }, "geometry": { "type": "Point", "coordinates": [ -79.383578, 43.647924 ] } },
{ "type": "Feature", "properties": { "intersection_uid": 17, "intersection_name": "King / Bay", "date_installed": "2017-10-16", "date_decommissioned": null, "street_main": "BAY ST", "street_cross": "KING ST W", "int_id": 13466960, "px": 61, "n_leg_restricted": null, "e_leg_restricted": null, "s_leg_restricted": null, "w_leg_restricted": null }, "geometry": { "type": "Point", "coordinates": [ -79.380278, 43.64865 ] } },
{ "type": "Feature", "properties": { "intersection_uid": 18, "intersection_name": "King / Yonge", "date_installed": "2017-10-18", "date_decommissioned": null, "street_main": "YONGE ST", "street_cross": "KING ST", "int_id": 13466851, "px": 31, "n_leg_restricted": null, "e_leg_restricted": null, "s_leg_restricted": null, "w_leg_restricted": null }, "geometry": { "type": "Point", "coordinates": [ -79.377918, 43.649148 ] } },
{ "type": "Feature", "properties": { "intersection_uid": 19, "intersection_name": "King / Church", "date_installed": "2017-10-23", "date_decommissioned": "2020-06-15", "street_main": "KING ST E", "street_cross": "CHURCH ST", "int_id": 13466729, "px": 16, "n_leg_restricted": null, "e_leg_restricted": null, "s_leg_restricted": null, "w_leg_restricted": null }, "geometry": { "type": "Point", "coordinates": [ -79.374412, 43.649921 ] } },
{ "type": "Feature", "properties": { "intersection_uid": 20, "intersection_name": "King / Jarvis", "date_installed": "2017-10-03", "date_decommissioned": null, "street_main": "KING ST E", "street_cross": "JARVIS ST", "int_id": 13466630, "px": 3, "n_leg_restricted": null, "e_leg_restricted": null, "s_leg_restricted": null, "w_leg_restricted": null }, "geometry": { "type": "Point", "coordinates": [ -79.371891, 43.650459 ] } },
{ "type": "Feature", "properties": { "intersection_uid": 21, "intersection_name": "King / Sherbourne", "date_installed": "2017-10-23", "date_decommissioned": null, "street_main": "KING ST E", "street_cross": "SHERBOURNE ST", "int_id": 13466482, "px": 254, "n_leg_restricted": null, "e_leg_restricted": null, "s_leg_restricted": null, "w_leg_restricted": null }, "geometry": { "type": "Point", "coordinates": [ -79.368261, 43.651277 ] } },
{ "type": "Feature", "properties": { "intersection_uid": 22, "intersection_name": "Queen / Bathurst", "date_installed": "2017-10-10", "date_decommissioned": null, "street_main": "BATHURST ST", "street_cross": "QUEEN ST W", "int_id": 13467252, "px": 296, "n_leg_restricted": null, "e_leg_restricted": null, "s_leg_restricted": null, "w_leg_restricted": null }, "geometry": { "type": "Point", "coordinates": [ -79.40401, 43.647188 ] } },
{ "type": "Feature", "properties": { "intersection_uid": 23, "intersection_name": "Queen / Spadina", "date_installed": "2017-10-16", "date_decommissioned": null, "street_main": "SPADINA AVE", "street_cross": "QUEEN ST W", "int_id": 13466982, "px": 276, "n_leg_restricted": null, "e_leg_restricted": null, "s_leg_restricted": null, "w_leg_restricted": null }, "geometry": { "type": "Point", "coordinates": [ -79.396381, 43.648765 ] } },
{ "type": "Feature", "properties": { "intersection_uid": 24, "intersection_name": "Queen / Bay", "date_installed": "2017-10-12", "date_decommissioned": null, "street_main": "BAY ST", "street_cross": "QUEEN ST W", "int_id": 13466418, "px": 64, "n_leg_restricted": null, "e_leg_restricted": null, "s_leg_restricted": null, "w_leg_restricted": null }, "geometry": { "type": "Point", "coordinates": [ -79.381718, 43.651893 ] } },
{ "type": "Feature", "properties": { "intersection_uid": 25, "intersection_name": "Queen / Jarvis", "date_installed": "2017-10-12", "date_decommissioned": null, "street_main": "JARVIS ST", "street_cross": "QUEEN ST E", "int_id": 13466110, "px": 6, "n_leg_restricted": null, "e_leg_restricted": null, "s_leg_restricted": null, "w_leg_restricted": null }, "geometry": { "type": "Point", "coordinates": [ -79.373254, 43.653729 ] } },
{ "type": "Feature", "properties": { "intersection_uid": 26, "intersection_name": "Richmond / Bathurst", "date_installed": "2017-10-10", "date_decommissioned": null, "street_main": "BATHURST ST", "street_cross": "RICHMOND ST W", "int_id": 13467372, "px": 298, "n_leg_restricted": null, "e_leg_restricted": null, "s_leg_restricted": null, "w_leg_restricted": null }, "geometry": { "type": "Point", "coordinates": [ -79.40376, 43.646471 ] } },
{ "type": "Feature", "properties": { "intersection_uid": 27, "intersection_name": "Richmond / Spadina", "date_installed": "2017-10-13", "date_decommissioned": null, "street_main": "SPADINA AVE", "street_cross": "RICHMOND ST W", "int_id": 13467124, "px": 275, "n_leg_restricted": null, "e_leg_restricted": null, "s_leg_restricted": null, "w_leg_restricted": true }, "geometry": { "type": "Point", "coordinates": [ -79.395969, 43.647807 ] } },
{ "type": "Feature", "properties": { "intersection_uid": 28, "intersection_name": "Richmond / Bay", "date_installed": "2017-10-12", "date_decommissioned": null, "street_main": "BAY ST", "street_cross": "RICHMOND ST W", "int_id": 13466536, "px": 63, "n_leg_restricted": null, "e_leg_restricted": null, "s_leg_restricted": null, "w_leg_restricted": true }, "geometry": { "type": "Point", "coordinates": [ -79.381333, 43.65117 ] } },
{ "type": "Feature", "properties": { "intersection_uid": 29, "intersection_name": "Richmond / Jarvis", "date_installed": "2017-10-12", "date_decommissioned": null, "street_main": "JARVIS ST", "street_cross": "RICHMOND ST E", "int_id": 13466268, "px": 5, "n_leg_restricted": null, "e_leg_restricted": null, "s_leg_restricted": null, "w_leg_restricted": true }, "geometry": { "type": "Point", "coordinates": [ -79.372831, 43.652704 ] } },
{ "type": "Feature", "properties": { "intersection_uid": 30, "intersection_name": "Wellington / Blue Jay", "date_installed": "2017-10-19", "date_decommissioned": "2020-06-15", "street_main": "WELLINGTON ST W", "street_cross": "BLUE JAYS WAY", "int_id": 13467601, "px": 1682, "n_leg_restricted": null, "e_leg_restricted": null, "s_leg_restricted": null, "w_leg_restricted": null }, "geometry": { "type": "Point", "coordinates": [ -79.391794, 43.644748 ] } },
{ "type": "Feature", "properties": { "intersection_uid": 31, "intersection_name": "Wellington / Bay", "date_installed": "2017-10-12", "date_decommissioned": null, "street_main": "BAY ST", "street_cross": "WELLINGTON ST W", "int_id": 13467163, "px": 60, "n_leg_restricted": null, "e_leg_restricted": null, "s_leg_restricted": null, "w_leg_restricted": true }, "geometry": { "type": "Point", "coordinates": [ -79.379729, 43.647334 ] } },
{ "type": "Feature", "properties": { "intersection_uid": 32, "intersection_name": "King / John", "date_installed": "2017-10-17", "date_decommissioned": "2020-06-15", "street_main": "KING ST W", "street_cross": "JOHN ST", "int_id": 13467321, "px": 1320, "n_leg_restricted": null, "e_leg_restricted": null, "s_leg_restricted": null, "w_leg_restricted": null }, "geometry": { "type": "Point", "coordinates": [ -79.389773, 43.646603 ] } },
{ "type": "Feature", "properties": { "intersection_uid": 33, "intersection_name": "Bloor / Avenue", "date_installed": "2020-06-23", "date_decommissioned": null, "street_main": "AVENUE RD", "street_cross": "BLOOR ST W", "int_id": 13463747, "px": 86, "n_leg_restricted": null, "e_leg_restricted": null, "s_leg_restricted": null, "w_leg_restricted": null }, "geometry": { "type": "Point", "coordinates": [ -79.394141, 43.66872 ] } },
{ "type": "Feature", "properties": { "intersection_uid": 34, "intersection_name": "Bloor / Sherbourne", "date_installed": "2020-06-22", "date_decommissioned": null, "street_main": "BLOOR ST E", "street_cross": "SHERBOURNE ST", "int_id": 13463078, "px": 262, "n_leg_restricted": null, "e_leg_restricted": null, "s_leg_restricted": null, "w_leg_restricted": null }, "geometry": { "type": "Point", "coordinates": [ -79.376854, 43.672358 ] } },
{ "type": "Feature", "properties": { "intersection_uid": 35, "intersection_name": "Bloor / Shaw", "date_installed": "2020-06-22", "date_decommissioned": null, "street_main": "BLOOR ST W", "street_cross": "SHAW ST", "int_id": 13464817, "px": 323, "n_leg_restricted": null, "e_leg_restricted": null, "s_leg_restricted": null, "w_leg_restricted": null }, "geometry": { "type": "Point", "coordinates": [ -79.423268, 43.662509 ] } },
{ "type": "Feature", "properties": { "intersection_uid": 36, "intersection_name": "Eglinton / Brimley", "date_installed": "2020-06-25", "date_decommissioned": null, "street_main": "EGLINTON AVE E", "street_cross": "BRIMLEY RD", "int_id": 13452119, "px": 462, "n_leg_restricted": null, "e_leg_restricted": null, "s_leg_restricted": null, "w_leg_restricted": null }, "geometry": { "type": "Point", "coordinates": [ -79.248084, 43.736696 ] } },
{ "type": "Feature", "properties": { "intersection_uid": 37, "intersection_name": "Danforth / Jones", "date_installed": "2020-06-23", "date_decommissioned": null, "street_main": "DANFORTH AVE", "street_cross": "JONES AVE", "int_id": 13461657, "px": 346, "n_leg_restricted": true, "e_leg_restricted": null, "s_leg_restricted": null, "w_leg_restricted": null }, "geometry": { "type": "Point", "coordinates": [ -79.340177, 43.679874 ] } },
{ "type": "Feature", "properties": { "intersection_uid": 38, "intersection_name": "Danforth / Woodbine", "date_installed": "2020-06-23", "date_decommissioned": null, "street_main": "DANFORTH AVE", "street_cross": "WOODBINE AVE", "int_id": 13460523, "px": 351, "n_leg_restricted": null, "e_leg_restricted": null, "s_leg_restricted": null, "w_leg_restricted": null }, "geometry": { "type": "Point", "coordinates": [ -79.312778, 43.685684 ] } },
{ "type": "Feature", "properties": { "intersection_uid": 39, "intersection_name": "Danforth / Dawes", "date_installed": "2020-06-23", "date_decommissioned": null, "street_main": "DANFORTH AVE", "street_cross": "DAWES RD", "int_id": 13459820, "px": 354, "n_leg_restricted": null, "e_leg_restricted": null, "s_leg_restricted": null, "w_leg_restricted": null }, "geometry": { "type": "Point", "coordinates": [ -79.296771, 43.689305 ] } },
{ "type": "Feature", "properties": { "intersection_uid": 40, "intersection_name": "Dundas / River", "date_installed": "2020-06-24", "date_decommissioned": null, "street_main": "DUNDAS ST E", "street_cross": "RIVER ST", "int_id": 13464879, "px": 293, "n_leg_restricted": null, "e_leg_restricted": null, "s_leg_restricted": null, "w_leg_restricted": null }, "geometry": { "type": "Point", "coordinates": [ -79.358162, 43.661198 ] } },
{ "type": "Feature", "properties": { "intersection_uid": 41, "intersection_name": "Bloor / Bay", "date_installed": "2020-10-16", "date_decommissioned": null, "street_main": "BAY ST", "street_cross": "BLOOR ST W", "int_id": 13463548, "px": 70, "n_leg_restricted": null, "e_leg_restricted": null, "s_leg_restricted": null, "w_leg_restricted": null }, "geometry": { "type": "Point", "coordinates": [ -79.389507, 43.669669 ] } },
{ "type": "Feature", "properties": { "intersection_uid": 42, "intersection_name": "College / University", "date_installed": "2020-10-27", "date_decommissioned": null, "street_main": "UNIVERSITY AVE", "street_cross": "COLLEGE ST", "int_id": 13465166, "px": 83, "n_leg_restricted": null, "e_leg_restricted": null, "s_leg_restricted": null, "w_leg_restricted": null }, "geometry": { "type": "Point", "coordinates": [ -79.390494, 43.659858 ] } },
{ "type": "Feature", "properties": { "intersection_uid": 43, "intersection_name": "Danforth / Logan", "date_installed": "2020-10-08", "date_decommissioned": null, "street_main": "DANFORTH AVE", "street_cross": "LOGAN AVE", "int_id": 13462012, "px": 343, "n_leg_restricted": true, "e_leg_restricted": null, "s_leg_restricted": null, "w_leg_restricted": null }, "geometry": { "type": "Point", "coordinates": [ -79.349623, 43.678012 ] } },
{ "type": "Feature", "properties": { "intersection_uid": 44, "intersection_name": "Dundas / Bloor", "date_installed": "2020-10-09", "date_decommissioned": null, "street_main": "DUNDAS ST W", "street_cross": "BLOOR ST W", "int_id": 13465876, "px": 327, "n_leg_restricted": null, "e_leg_restricted": null, "s_leg_restricted": null, "w_leg_restricted": null }, "geometry": { "type": "Point", "coordinates": [ -79.452453, 43.656321 ] } },
{ "type": "Feature", "properties": { "intersection_uid": 45, "intersection_name": "Eglinton / Kingston", "date_installed": "2020-10-26", "date_decommissioned": null, "street_main": "KINGSTON RD", "street_cross": "EGLINTON AVE E", "int_id": 13450880, "px": 147, "n_leg_restricted": null, "e_leg_restricted": null, "s_leg_restricted": true, "w_leg_restricted": null }, "geometry": { "type": "Point", "coordinates": [ -79.211663, 43.743722 ] } },
{ "type": "Feature", "properties": { "intersection_uid": 46, "intersection_name": "Ellesmere / Morningside", "date_installed": "2020-10-05", "date_decommissioned": null, "street_main": "ELLESMERE RD", "street_cross": "MORNINGSIDE AVE", "int_id": 13445039, "px": 719, "n_leg_restricted": null, "e_leg_restricted": null, "s_leg_restricted": null, "w_leg_restricted": null }, "geometry": { "type": "Point", "coordinates": [ -79.193342, 43.785344 ] } },
{ "type": "Feature", "properties": { "intersection_uid": 47, "intersection_name": "Danforth / Greenwood", "date_installed": "2020-10-08", "date_decommissioned": null, "street_main": "DANFORTH AVE", "street_cross": "GREENWOOD AVE", "int_id": 13461356, "px": 348, "n_leg_restricted": null, "e_leg_restricted": null, "s_leg_restricted": null, "w_leg_restricted": null }, "geometry": { "type": "Point", "coordinates": [ -79.332382, 43.681484 ] } },
{ "type": "Feature", "properties": { "intersection_uid": 48, "intersection_name": "Huntingwood / Warden", "date_installed": "2020-10-05", "date_decommissioned": null, "street_main": "WARDEN AVE", "street_cross": "HUNTINGWOOD DR", "int_id": 13445257, "px": 871, "n_leg_restricted": null, "e_leg_restricted": null, "s_leg_restricted": null, "w_leg_restricted": null }, "geometry": { "type": "Point", "coordinates": [ -79.310952, 43.785477 ] } },
{ "type": "Feature", "properties": { "intersection_uid": 49, "intersection_name": "Lawrence / Brimley", "date_installed": "2020-10-05", "date_decommissioned": null, "street_main": "LAWRENCE AVE E", "street_cross": "BRIMLEY RD", "int_id": 13449501, "px": 414, "n_leg_restricted": null, "e_leg_restricted": null, "s_leg_restricted": null, "w_leg_restricted": null }, "geometry": { "type": "Point", "coordinates": [ -79.255367, 43.753526 ] } },
{ "type": "Feature", "properties": { "intersection_uid": 50, "intersection_name": "Kingston / Morningside", "date_installed": "2020-10-01", "date_decommissioned": null, "street_main": "KINGSTON RD", "street_cross": "MORNINGSIDE AVE", "int_id": 13446901, "px": 143, "n_leg_restricted": null, "e_leg_restricted": null, "s_leg_restricted": null, "w_leg_restricted": null }, "geometry": { "type": "Point", "coordinates": [ -79.186865, 43.770612 ] } },
{ "type": "Feature", "properties": { "intersection_uid": 51, "intersection_name": "Bloor / Runnymede", "date_installed": "2020-10-08", "date_decommissioned": null, "street_main": "BLOOR ST W", "street_cross": "RUNNYMEDE RD", "int_id": 13466753, "px": 331, "n_leg_restricted": null, "e_leg_restricted": null, "s_leg_restricted": null, "w_leg_restricted": null }, "geometry": { "type": "Point", "coordinates": [ -79.476304, 43.651135 ] } },
{ "type": "Feature", "properties": { "intersection_uid": 52, "intersection_name": "Sheppard / Wilmington", "date_installed": "2020-10-06", "date_decommissioned": null, "street_main": "SHEPPARD AVE W", "street_cross": "WILMINGTON AVE", "int_id": 13450069, "px": 739, "n_leg_restricted": null, "e_leg_restricted": null, "s_leg_restricted": null, "w_leg_restricted": null }, "geometry": { "type": "Point", "coordinates": [ -79.451918, 43.752688 ] } },
{ "type": "Feature", "properties": { "intersection_uid": 53, "intersection_name": "St. Clair / Brimley", "date_installed": "2020-09-30", "date_decommissioned": null, "street_main": "ST CLAIR AVE E", "street_cross": "BRIMLEY RD", "int_id": 13454486, "px": 497, "n_leg_restricted": null, "e_leg_restricted": null, "s_leg_restricted": null, "w_leg_restricted": null }, "geometry": { "type": "Point", "coordinates": [ -79.241448, 43.720875 ] } },
{ "type": "Feature", "properties": { "intersection_uid": 54, "intersection_name": "Overlea / Thorncliffe Park", "date_installed": "2020-10-13", "date_decommissioned": null, "street_main": "OVERLEA BLVD", "street_cross": "THORNCLIFFE PARK DR", "int_id": 13457237, "px": 680, "n_leg_restricted": null, "e_leg_restricted": null, "s_leg_restricted": null, "w_leg_restricted": null }, "geometry": { "type": "Point", "coordinates": [ -79.349877, 43.705007 ] } },
{ "type": "Feature", "properties": { "intersection_uid": 55, "intersection_name": "Danforth / Broadview", "date_installed": "2020-11-10", "date_decommissioned": null, "street_main": "DANFORTH AVE", "street_cross": "BROADVIEW AVE", "int_id": 13462375, "px": 294, "n_leg_restricted": null, "e_leg_restricted": null, "s_leg_restricted": null, "w_leg_restricted": null }, "geometry": { "type": "Point", "coordinates": [ -79.358872, 43.676202 ] } },
{ "type": "Feature", "properties": { "intersection_uid": 56, "intersection_name": "Overlea / Don Mills", "date_installed": "2020-11-13", "date_decommissioned": null, "street_main": "DON MILLS RD", "street_cross": "OVERLEA BLVD", "int_id": 13456414, "px": 620, "n_leg_restricted": null, "e_leg_restricted": null, "s_leg_restricted": null, "w_leg_restricted": null }, "geometry": { "type": "Point", "coordinates": [ -79.334394, 43.709996 ] } },
{ "type": "Feature", "properties": { "intersection_uid": 57, "intersection_name": "Queen / University", "date_installed": "2020-11-10", "date_decommissioned": null, "street_main": "UNIVERSITY AVE", "street_cross": "QUEEN ST W", "int_id": 13466604, "px": 80, "n_leg_restricted": null, "e_leg_restricted": null, "s_leg_restricted": null, "w_leg_restricted": null }, "geometry": { "type": "Point", "coordinates": [ -79.386628, 43.650852 ] } },
{ "type": "Feature", "properties": { "intersection_uid": 58, "intersection_name": "Bloor / Dufferin", "date_installed": "2020-12-22", "date_decommissioned": null, "street_main": "DUFFERIN ST", "street_cross": "BLOOR ST W", "int_id": 13465260, "px": 325, "n_leg_restricted": null, "e_leg_restricted": null, "s_leg_restricted": null, "w_leg_restricted": null }, "geometry": { "type": "Point", "coordinates": [ -79.435365, 43.659883 ] } },
{ "type": "Feature", "properties": { "intersection_uid": 59, "intersection_name": "Eglinton / Jane", "date_installed": "2021-06-02", "date_decommissioned": null, "street_main": "EGLINTON AVE W", "street_cross": "JANE ST", "int_id": 13461228, "px": 905, "n_leg_restricted": null, "e_leg_restricted": null, "s_leg_restricted": null, "w_leg_restricted": null }, "geometry": { "type": "Point", "coordinates": [ -79.498823, 43.684476 ] } },
{ "type": "Feature", "properties": { "intersection_uid": 60, "intersection_name": "Harbord / St. George", "date_installed": "2021-05-14", "date_decommissioned": null, "street_main": "ST GEORGE ST", "street_cross": "HARBORD ST", "int_id": 13464524, "px": 838, "n_leg_restricted": null, "e_leg_restricted": null, "s_leg_restricted": null, "w_leg_restricted": null }, "geometry": { "type": "Point", "coordinates": [ -79.398444, 43.664109 ] } },
{ "type": "Feature", "properties": { "intersection_uid": 61, "intersection_name": "Lawrence / Jane", "date_installed": "2021-06-08", "date_decommissioned": null, "street_main": "JANE ST", "street_cross": "LAWRENCE AVE W", "int_id": 13457965, "px": 430, "n_leg_restricted": null, "e_leg_restricted": null, "s_leg_restricted": null, "w_leg_restricted": null }, "geometry": { "type": "Point", "coordinates": [ -79.503838, 43.702878 ] } },
{ "type": "Feature", "properties": { "intersection_uid": 62, "intersection_name": "Wilson / Jane", "date_installed": "2021-06-09", "date_decommissioned": null, "street_main": "WILSON AVE", "street_cross": "JANE ST", "int_id": 13455040, "px": 532, "n_leg_restricted": null, "e_leg_restricted": null, "s_leg_restricted": null, "w_leg_restricted": null }, "geometry": { "type": "Point", "coordinates": [ -79.508634, 43.720915 ] } },
{ "type": "Feature", "properties": { "intersection_uid": 63, "intersection_name": "Sheppard / Weston", "date_installed": "2021-05-14", "date_decommissioned": null, "street_main": "WESTON RD", "street_cross": "SHEPPARD AVE W", "int_id": 13453198, "px": 588, "n_leg_restricted": null, "e_leg_restricted": null, "s_leg_restricted": null, "w_leg_restricted": true }, "geometry": { "type": "Point", "coordinates": [ -79.538228, 43.733746 ] } },
{ "type": "Feature", "properties": { "intersection_uid": 64, "intersection_name": "Davenport / Yonge", "date_installed": "2021-05-14", "date_decommissioned": null, "street_main": "YONGE ST", "street_cross": "CHURCH ST", "int_id": 13463015, "px": 41, "n_leg_restricted": null, "e_leg_restricted": null, "s_leg_restricted": null, "w_leg_restricted": null }, "geometry": { "type": "Point", "coordinates": [ -79.387866, 43.672873 ] } },
{ "type": "Feature", "properties": { "intersection_uid": 65, "intersection_name": "River / Bayview", "date_installed": "2021-06-16", "date_decommissioned": null, "street_main": "BAYVIEW AVE", "street_cross": "RIVER ST", "int_id": 13464116, "px": 177, "n_leg_restricted": null, "e_leg_restricted": true, "s_leg_restricted": true, "w_leg_restricted": null }, "geometry": { "type": "Point", "coordinates": [ -79.357355, 43.665869 ] } },
{ "type": "Feature", "properties": { "intersection_uid": 66, "intersection_name": "Sheppard / Jane", "date_installed": "2021-05-12", "date_decommissioned": null, "street_main": "SHEPPARD AVE W", "street_cross": "JANE ST", "int_id": 13452283, "px": 533, "n_leg_restricted": null, "e_leg_restricted": null, "s_leg_restricted": null, "w_leg_restricted": null }, "geometry": { "type": "Point", "coordinates": [ -79.513221, 43.739389 ] } },
{ "type": "Feature", "properties": { "intersection_uid": 67, "intersection_name": "Sheppard / Keele", "date_installed": "2023-06-29", "date_decommissioned": null, "street_main": "KEELE ST", "street_cross": "SHEPPARD AVE W", "int_id": 13451388, "px": 600, "n_leg_restricted": null, "e_leg_restricted": null, "s_leg_restricted": null, "w_leg_restricted": null }, "geometry": { "type": "Point", "coordinates": [ -79.486452, 43.744777 ] } },
{ "type": "Feature", "properties": { "intersection_uid": 68, "intersection_name": "Steeles / Jane", "date_installed": "2023-01-23", "date_decommissioned": null, "street_main": "STEELES AVE W", "street_cross": "JANE ST", "int_id": 13446896, "px": 535, "n_leg_restricted": null, "e_leg_restricted": null, "s_leg_restricted": null, "w_leg_restricted": null }, "geometry": { "type": "Point", "coordinates": [ -79.521735, 43.77547 ] } },
{ "type": "Feature", "properties": { "intersection_uid": 69, "intersection_name": "College / Bathurst", "date_installed": "2023-08-09", "date_decommissioned": null, "street_main": "COLLEGE ST", "street_cross": "BATHURST ST", "int_id": 13465757, "px": 300, "n_leg_restricted": null, "e_leg_restricted": null, "s_leg_restricted": null, "w_leg_restricted": null }, "geometry": { "type": "Point", "coordinates": [ -79.407722, 43.656481 ] } },
{ "type": "Feature", "properties": { "intersection_uid": 70, "intersection_name": "Fort York / Bathurst", "date_installed": "2023-08-09", "date_decommissioned": null, "street_main": "BATHURST ST", "street_cross": "FORT YORK BLVD", "int_id": 14255097, "px": 1919, "n_leg_restricted": null, "e_leg_restricted": null, "s_leg_restricted": null, "w_leg_restricted": null }, "geometry": { "type": "Point", "coordinates": [ -79.400649, 43.638839 ] } },
{ "type": "Feature", "properties": { "intersection_uid": 71, "intersection_name": "King / Lower River", "date_installed": "2023-11-29", "date_decommissioned": null, "street_main": "KING ST E", "street_cross": "RIVER ST", "int_id": 13465557, "px": 2181, "n_leg_restricted": null, "e_leg_restricted": null, "s_leg_restricted": null, "w_leg_restricted": null }, "geometry": { "type": "Point", "coordinates": [ -79.356158, 43.656868 ] } },
{ "type": "Feature", "properties": { "intersection_uid": 72, "intersection_name": "Queen / River", "date_installed": "2023-11-29", "date_decommissioned": null, "street_main": "QUEEN ST E", "street_cross": "RIVER ST", "int_id": 13465478, "px": 174, "n_leg_restricted": null, "e_leg_restricted": null, "s_leg_restricted": null, "w_leg_restricted": null }, "geometry": { "type": "Point", "coordinates": [ -79.35653, 43.657375 ] } },
{ "type": "Feature", "properties": { "intersection_uid": 73, "intersection_name": "Bloor / Islington", "date_installed": "2023-12-04", "date_decommissioned": null, "street_main": "BLOOR ST W", "street_cross": "ISLINGTON AVE", "int_id": 13467841, "px": 339, "n_leg_restricted": null, "e_leg_restricted": null, "s_leg_restricted": null, "w_leg_restricted": null }, "geometry": { "type": "Point", "coordinates": [ -79.523438, 43.644648 ] } },
{ "type": "Feature", "properties": { "intersection_uid": 74, "intersection_name": "Bloor / Jane", "date_installed": "2023-12-04", "date_decommissioned": null, "street_main": "BLOOR ST W", "street_cross": "JANE ST", "int_id": 13467077, "px": 333, "n_leg_restricted": null, "e_leg_restricted": null, "s_leg_restricted": true, "w_leg_restricted": null }, "geometry": { "type": "Point", "coordinates": [ -79.484483, 43.64933 ] } },
{ "type": "Feature", "properties": { "intersection_uid": 75, "intersection_name": "Lawrence / Birchmount", "date_installed": "2023-12-04", "date_decommissioned": null, "street_main": "LAWRENCE AVE E", "street_cross": "BIRCHMOUNT RD", "int_id": 13450484, "px": 410, "n_leg_restricted": null, "e_leg_restricted": null, "s_leg_restricted": null, "w_leg_restricted": null }, "geometry": { "type": "Point", "coordinates": [ -79.284836, 43.747518 ] } },
{ "type": "Feature", "properties": { "intersection_uid": 76, "intersection_name": "Triton / Brimley", "date_installed": "2023-12-04", "date_decommissioned": null, "street_main": "BRIMLEY RD", "street_cross": "TRITON RD", "int_id": 13446676, "px": 1171, "n_leg_restricted": null, "e_leg_restricted": null, "s_leg_restricted": null, "w_leg_restricted": true }, "geometry": { "type": "Point", "coordinates": [ -79.26243, 43.773374 ] } },
{ "type": "Feature", "properties": { "intersection_uid": 77, "intersection_name": "St. Clair / Yonge", "date_installed": "2023-12-04", "date_decommissioned": null, "street_main": "YONGE ST", "street_cross": "ST CLAIR AVE", "int_id": 13460295, "px": 46, "n_leg_restricted": null, "e_leg_restricted": null, "s_leg_restricted": null, "w_leg_restricted": null }, "geometry": { "type": "Point", "coordinates": [ -79.394141, 43.688083 ] } },
{ "type": "Feature", "properties": { "intersection_uid": 78, "intersection_name": "Bloor / The Kingsway", "date_installed": "2023-12-04", "date_decommissioned": null, "street_main": "BLOOR ST W", "street_cross": "THE KINGSWAY", "int_id": 13466999, "px": 336, "n_leg_restricted": null, "e_leg_restricted": null, "s_leg_restricted": true, "w_leg_restricted": null }, "geometry": { "type": "Point", "coordinates": [ -79.499214, 43.650065 ] } },
{ "type": "Feature", "properties": { "intersection_uid": 79, "intersection_name": "Eastern / Cherry", "date_installed": "2023-12-04", "date_decommissioned": null, "street_main": "EASTERN AVE", "street_cross": "CHERRY ST", "int_id": 13466055, "px": 816, "n_leg_restricted": null, "e_leg_restricted": null, "s_leg_restricted": null, "w_leg_restricted": null }, "geometry": { "type": "Point", "coordinates": [ -79.358533, 43.653906 ] } },
{ "type": "Feature", "properties": { "intersection_uid": 80, "intersection_name": "Eglinton / Kennedy", "date_installed": "2023-12-04", "date_decommissioned": null, "street_main": "EGLINTON AVE E", "street_cross": "KENNEDY RD", "int_id": 13452869, "px": 460, "n_leg_restricted": null, "e_leg_restricted": null, "s_leg_restricted": null, "w_leg_restricted": null }, "geometry": { "type": "Point", "coordinates": [ -79.267931, 43.732201 ] } },
{ "type": "Feature", "properties": { "intersection_uid": 81, "intersection_name": "Ellesmere / Borough Approach", "date_installed": "2023-12-06", "date_decommissioned": null, "street_main": "ELLESMERE RD", "street_cross": "BOROUGH APPROACH W", "int_id": 13447031, "px": 2672, "n_leg_restricted": null, "e_leg_restricted": null, "s_leg_restricted": true, "w_leg_restricted": null }, "geometry": { "type": "Point", "coordinates": [ -79.258129, 43.770761 ] } },
{ "type": "Feature", "properties": { "intersection_uid": 82, "intersection_name": "Bloor / Royal York", "date_installed": "2023-12-06", "date_decommissioned": null, "street_main": "BLOOR ST W", "street_cross": "ROYAL YORK RD", "int_id": 13467463, "px": 338, "n_leg_restricted": null, "e_leg_restricted": null, "s_leg_restricted": null, "w_leg_restricted": null }, "geometry": { "type": "Point", "coordinates": [ -79.511363, 43.647362 ] } },
{ "type": "Feature", "properties": { "intersection_uid": 83, "intersection_name": "Lawrence / Kennedy", "date_installed": "2023-12-06", "date_decommissioned": null, "street_main": "LAWRENCE AVE E", "street_cross": "KENNEDY RD", "int_id": 13450163, "px": 412, "n_leg_restricted": null, "e_leg_restricted": null, "s_leg_restricted": null, "w_leg_restricted": null }, "geometry": { "type": "Point", "coordinates": [ -79.274934, 43.749497 ] } },
{ "type": "Feature", "properties": { "intersection_uid": 84, "intersection_name": "Ellesmere / Midland", "date_installed": "2023-12-06", "date_decommissioned": null, "street_main": "ELLESMERE RD", "street_cross": "MIDLAND AVE", "int_id": 13447496, "px": 697, "n_leg_restricted": null, "e_leg_restricted": null, "s_leg_restricted": null, "w_leg_restricted": null }, "geometry": { "type": "Point", "coordinates": [ -79.27111, 43.767924 ] } },
{ "type": "Feature", "properties": { "intersection_uid": 85, "intersection_name": "Ellesmere / McCowan", "date_installed": "2023-12-06", "date_decommissioned": null, "street_main": "MCCOWAN RD", "street_cross": "ELLESMERE RD", "int_id": 13446827, "px": 699, "n_leg_restricted": null, "e_leg_restricted": null, "s_leg_restricted": null, "w_leg_restricted": null }, "geometry": { "type": "Point", "coordinates": [ -79.251498, 43.772142 ] } },
{ "type": "Feature", "properties": { "intersection_uid": 86, "intersection_name": "Lawrence / Midland", "date_installed": "2023-12-06", "date_decommissioned": null, "street_main": "LAWRENCE AVE E", "street_cross": "MIDLAND AVE", "int_id": 13449830, "px": 413, "n_leg_restricted": null, "e_leg_restricted": null, "s_leg_restricted": null, "w_leg_restricted": null }, "geometry": { "type": "Point", "coordinates": [ -79.265052, 43.751521 ] } },
{ "type": "Feature", "properties": { "intersection_uid": 87, "intersection_name": "Ellesmere / Kennedy", "date_installed": "2023-12-06", "date_decommissioned": null, "street_main": "KENNEDY RD", "street_cross": "ELLESMERE RD", "int_id": 13447843, "px": 696, "n_leg_restricted": null, "e_leg_restricted": null, "s_leg_restricted": null, "w_leg_restricted": null }, "geometry": { "type": "Point", "coordinates": [ -79.281078, 43.765802 ] } },
{ "type": "Feature", "properties": { "intersection_uid": 88, "intersection_name": "Ellesmere / Brimley", "date_installed": "2023-12-06", "date_decommissioned": null, "street_main": "BRIMLEY RD", "street_cross": "ELLESMERE RD", "int_id": 13447139, "px": 698, "n_leg_restricted": null, "e_leg_restricted": null, "s_leg_restricted": null, "w_leg_restricted": null }, "geometry": { "type": "Point", "coordinates": [ -79.26125, 43.77026 ] } },
{ "type": "Feature", "properties": { "intersection_uid": 89, "intersection_name": "Gordon Baker / Victoria Park", "date_installed": "2024-01-02", "date_decommissioned": null, "street_main": "VICTORIA PARK AVE", "street_cross": "GORDON BAKER RD", "int_id": 13442540, "px": 1252, "n_leg_restricted": null, "e_leg_restricted": null, "s_leg_restricted": null, "w_leg_restricted": null }, "geometry": { "type": "Point", "coordinates": [ -79.339209, 43.81066 ] } },
{ "type": "Feature", "properties": { "intersection_uid": 90, "intersection_name": "Gerrard / River", "date_installed": "2024-01-02", "date_decommissioned": null, "street_main": "GERRARD ST E", "street_cross": "RIVER ST", "int_id": 13464490, "px": 176, "n_leg_restricted": null, "e_leg_restricted": null, "s_leg_restricted": null, "w_leg_restricted": null }, "geometry": { "type": "Point", "coordinates": [ -79.359244, 43.663707 ] } },
{ "type": "Feature", "properties": { "intersection_uid": 91, "intersection_name": "Lake Shore / Spadina", "date_installed": "2024-01-03", "date_decommissioned": null, "street_main": "LAKE SHORE BLVD W", "street_cross": "SPADINA AVE", "int_id": 13468377, "px": 215, "n_leg_restricted": null, "e_leg_restricted": true, "s_leg_restricted": null, "w_leg_restricted": null }, "geometry": { "type": "Point", "coordinates": [ -79.392242, 43.638493 ] } },
{ "type": "Feature", "properties": { "intersection_uid": 92, "intersection_name": "Dupont / Davenport", "date_installed": "2024-01-03", "date_decommissioned": null, "street_main": "DAVENPORT RD", "street_cross": "DUPONT ST", "int_id": 13462552, "px": 382, "n_leg_restricted": null, "e_leg_restricted": null, "s_leg_restricted": null, "w_leg_restricted": null }, "geometry": { "type": "Point", "coordinates": [ -79.402594, 43.67581 ] } },
{ "type": "Feature", "properties": { "intersection_uid": 93, "intersection_name": "Roxborough / Mount Pleasant", "date_installed": "2024-01-03", "date_decommissioned": null, "street_main": "MOUNT PLEASANT RD", "street_cross": "ROXBOROUGH DR", "int_id": 13461616, "px": 2445, "n_leg_restricted": null, "e_leg_restricted": null, "s_leg_restricted": null, "w_leg_restricted": true }, "geometry": { "type": "Point", "coordinates": [ -79.382417, 43.680735 ] } },
{ "type": "Feature", "properties": { "intersection_uid": 94, "intersection_name": "Robinson / Bathurst", "date_installed": "2024-01-03", "date_decommissioned": null, "street_main": "BATHURST ST", "street_cross": "ROBINSON ST", "int_id": 13466991, "px": 1808, "n_leg_restricted": null, "e_leg_restricted": null, "s_leg_restricted": null, "w_leg_restricted": null }, "geometry": { "type": "Point", "coordinates": [ -79.404649, 43.648831 ] } },
{ "type": "Feature", "properties": { "intersection_uid": 95, "intersection_name": "Wellington / Bathurst", "date_installed": "2024-01-03", "date_decommissioned": null, "street_main": "BATHURST ST", "street_cross": "WELLINGTON ST W", "int_id": 13467884, "px": 2528, "n_leg_restricted": null, "e_leg_restricted": null, "s_leg_restricted": null, "w_leg_restricted": null }, "geometry": { "type": "Point", "coordinates": [ -79.402196, 43.642655 ] } },
{ "type": "Feature", "properties": { "intersection_uid": 96, "intersection_name": "Dupont / Spadina", "date_installed": "2024-05-09", "date_decommissioned": null, "street_main": "DUPONT ST", "street_cross": "SPADINA RD", "int_id": 13462730, "px": 840, "n_leg_restricted": null, "e_leg_restricted": null, "s_leg_restricted": null, "w_leg_restricted": null }, "geometry": { "type": "Point", "coordinates": [ -79.407122, 43.674857 ] } },
{ "type": "Feature", "properties": { "intersection_uid": 97, "intersection_name": "Kingston / Midland", "date_installed": "2024-02-21", "date_decommissioned": null, "street_main": "KINGSTON RD", "street_cross": "MIDLAND AVE", "int_id": 13456025, "px": 151, "n_leg_restricted": null, "e_leg_restricted": null, "s_leg_restricted": null, "w_leg_restricted": null }, "geometry": { "type": "Point", "coordinates": [ -79.248187, 43.711121 ] } },
{ "type": "Feature", "properties": { "intersection_uid": 98, "intersection_name": "Dupont / Bathurst", "date_installed": "2024-05-10", "date_decommissioned": null, "street_main": "BATHURST ST", "street_cross": "DUPONT ST", "int_id": 13463030, "px": 305, "n_leg_restricted": null, "e_leg_restricted": null, "s_leg_restricted": null, "w_leg_restricted": null }, "geometry": { "type": "Point", "coordinates": [ -79.414391, 43.67315 ] } },
{ "type": "Feature", "properties": { "intersection_uid": 99, "intersection_name": "Burnhamthorpe / Mill", "date_installed": "2024-05-10", "date_decommissioned": null, "street_main": "BURNHAMTHORPE RD", "street_cross": "MILL RD", "int_id": 13468564, "px": 1300, "n_leg_restricted": null, "e_leg_restricted": null, "s_leg_restricted": null, "w_leg_restricted": null }, "geometry": { "type": "Point", "coordinates": [ -79.584368, 43.639205 ] } },
{ "type": "Feature", "properties": { "intersection_uid": 100, "intersection_name": "Dupont / Avenue", "date_installed": "2024-05-10", "date_decommissioned": null, "street_main": "AVENUE RD", "street_cross": "DUPONT ST", "int_id": 13462302, "px": 109, "n_leg_restricted": null, "e_leg_restricted": true, "s_leg_restricted": null, "w_leg_restricted": null }, "geometry": { "type": "Point", "coordinates": [ -79.397626, 43.677202 ] } },
{ "type": "Feature", "properties": { "intersection_uid": 101, "intersection_name": "Harbord / Bathurst", "date_installed": "2024-05-11", "date_decommissioned": null, "street_main": "BATHURST ST", "street_cross": "HARBORD ST", "int_id": 13464943, "px": 303, "n_leg_restricted": null, "e_leg_restricted": null, "s_leg_restricted": null, "w_leg_restricted": null }, "geometry": { "type": "Point", "coordinates": [ -79.409769, 43.661514 ] } },
{ "type": "Feature", "properties": { "intersection_uid": 102, "intersection_name": "Bloor / Bathurst", "date_installed": "2024-05-11", "date_decommissioned": null, "street_main": "BLOOR ST W", "street_cross": "BATHURST ST", "int_id": 13464373, "px": 321, "n_leg_restricted": null, "e_leg_restricted": null, "s_leg_restricted": null, "w_leg_restricted": null }, "geometry": { "type": "Point", "coordinates": [ -79.411212, 43.665115 ] } },
{ "type": "Feature", "properties": { "intersection_uid": 103, "intersection_name": "Dundas / Bathurst", "date_installed": "2024-05-11", "date_decommissioned": null, "street_main": "DUNDAS ST W", "street_cross": "BATHURST ST", "int_id": 13466407, "px": 196, "n_leg_restricted": null, "e_leg_restricted": null, "s_leg_restricted": null, "w_leg_restricted": null }, "geometry": { "type": "Point", "coordinates": [ -79.406022, 43.652311 ] } },
{ "type": "Feature", "properties": { "intersection_uid": 104, "intersection_name": "Lake Shore / Bathurst", "date_installed": "2024-05-12", "date_decommissioned": null, "street_main": "LAKE SHORE BLVD W", "street_cross": "BATHURST ST", "int_id": 13468584, "px": 216, "n_leg_restricted": null, "e_leg_restricted": null, "s_leg_restricted": null, "w_leg_restricted": null }, "geometry": { "type": "Point", "coordinates": [ -79.399649, 43.636484 ] } },
{ "type": "Feature", "properties": { "intersection_uid": 105, "intersection_name": "Brickworks / Bayview", "date_installed": "2024-05-12", "date_decommissioned": null, "street_main": "BAYVIEW AVE", "street_cross": "POTTERY RD", "int_id": 30040114, "px": 2194, "n_leg_restricted": null, "e_leg_restricted": null, "s_leg_restricted": true, "w_leg_restricted": null }, "geometry": { "type": "Point", "coordinates": [ -79.365967, 43.682914 ] } },
{ "type": "Feature", "properties": { "intersection_uid": 106, "intersection_name": "Eglinton / Allen North", "date_installed": "2024-04-24", "date_decommissioned": null, "street_main": "EGLINTON AVE W", "street_cross": "WILLIAM R ALLEN RD N", "int_id": 13458384, "px": 1307, "n_leg_restricted": true, "e_leg_restricted": null, "s_leg_restricted": true, "w_leg_restricted": null }, "geometry": { "type": "Point", "coordinates": [ -79.435033, 43.69899 ] } },
{ "type": "Feature", "properties": { "intersection_uid": 107, "intersection_name": "Eglinton / Marlee", "date_installed": "2024-05-02", "date_decommissioned": null, "street_main": "EGLINTON AVE W", "street_cross": "MARLEE AVE", "int_id": 13458567, "px": 102, "n_leg_restricted": null, "e_leg_restricted": null, "s_leg_restricted": true, "w_leg_restricted": null }, "geometry": { "type": "Point", "coordinates": [ -79.43939, 43.69804 ] } },
{ "type": "Feature", "properties": { "intersection_uid": 108, "intersection_name": "Eglinton / Allen South", "date_installed": "2024-04-25", "date_decommissioned": null, "street_main": "EGLINTON AVE W", "street_cross": "WILLIAM R ALLEN RD S", "int_id": 13458434, "px": 772, "n_leg_restricted": null, "e_leg_restricted": null, "s_leg_restricted": true, "w_leg_restricted": null }, "geometry": { "type": "Point", "coordinates": [ -79.436461, 43.698685 ] } },
{ "type": "Feature", "properties": { "intersection_uid": 109, "intersection_name": "Eglinton / Dufferin", "date_installed": "2024-05-02", "date_decommissioned": null, "street_main": "DUFFERIN ST", "street_cross": "EGLINTON AVE W", "int_id": 13459036, "px": 105, "n_leg_restricted": null, "e_leg_restricted": null, "s_leg_restricted": null, "w_leg_restricted": null }, "geometry": { "type": "Point", "coordinates": [ -79.450278, 43.695691 ] } },
{ "type": "Feature", "properties": { "intersection_uid": 110, "intersection_name": "Barton / Bathurst", "date_installed": "2024-10-09", "date_decommissioned": null, "street_main": "BATHURST ST", "street_cross": "BARTON AVE", "int_id": 13463880, "px": 304, "n_leg_restricted": null, "e_leg_restricted": null, "s_leg_restricted": null, "w_leg_restricted": null }, "geometry": { "type": "Point", "coordinates": [ -79.412383, 43.668113 ] } },
{ "type": "Feature", "properties": { "intersection_uid": 111, "intersection_name": "Queen's Quay / Bathurst", "date_installed": "2024-10-28", "date_decommissioned": null, "street_main": "QUEENS QUAY W", "street_cross": "BATHURST ST", "int_id": 13468663, "px": 1593, "n_leg_restricted": null, "e_leg_restricted": null, "s_leg_restricted": null, "w_leg_restricted": null }, "geometry": { "type": "Point", "coordinates": [ -79.398365, 43.635674 ] } },
{ "type": "Feature", "properties": { "intersection_uid": 112, "intersection_name": "Niagara / Bathurst", "date_installed": "2024-10-23", "date_decommissioned": null, "street_main": "BATHURST ST", "street_cross": "NIAGARA ST", "int_id": 13467969, "px": 2363, "n_leg_restricted": null, "e_leg_restricted": true, "s_leg_restricted": null, "w_leg_restricted": null }, "geometry": { "type": "Point", "coordinates": [ -79.401895, 43.641915 ] } },
{ "type": "Feature", "properties": { "intersection_uid": 113, "intersection_name": "Eglinton / Caledonia", "date_installed": "2024-09-24", "date_decommissioned": null, "street_main": "EGLINTON AVE W", "street_cross": "CALEDONIA RD", "int_id": 13459569, "px": 465, "n_leg_restricted": null, "e_leg_restricted": null, "s_leg_restricted": null, "w_leg_restricted": null }, "geometry": { "type": "Point", "coordinates": [ -79.462214, 43.69303 ] } },
{ "type": "Feature", "properties": { "intersection_uid": 114, "intersection_name": "Eglinton / Oakwood", "date_installed": "2024-07-24", "date_decommissioned": null, "street_main": "EGLINTON AVE W", "street_cross": "OAKWOOD AVE", "int_id": 13458706, "px": 103, "n_leg_restricted": true, "e_leg_restricted": null, "s_leg_restricted": null, "w_leg_restricted": null }, "geometry": { "type": "Point", "coordinates": [ -79.442793, 43.697302 ] } },
{ "type": "Feature", "properties": { "intersection_uid": 115, "intersection_name": "Lake Shore / Cherry", "date_installed": "2025-04-10", "date_decommissioned": null, "street_main": "LAKE SHORE BLVD E", "street_cross": "CHERRY ST", "int_id": 30003380, "px": 1559, "n_leg_restricted": null, "e_leg_restricted": null, "s_leg_restricted": null, "w_leg_restricted": null }, "geometry": { "type": "Point", "coordinates": [ -79.35654, 43.649413 ] } },
{ "type": "Feature", "properties": { "intersection_uid": 116, "intersection_name": "Eglinton / Yonge", "date_installed": "2026-03-20", "date_decommissioned": null, "street_main": "YONGE ST", "street_cross": "EGLINTON AVE", "int_id": 13457078, "px": 49, "n_leg_restricted": null, "e_leg_restricted": null, "s_leg_restricted": null, "w_leg_restricted": null }, "geometry": { "type": "Point", "coordinates": [ -79.398366, 43.706731 ] } },
{ "type": "Feature", "properties": { "intersection_uid": 117, "intersection_name": "Eglinton / Avenue", "date_installed": "2025-07-30", "date_decommissioned": null, "street_main": "AVENUE RD", "street_cross": "EGLINTON AVE W", "int_id": 13457449, "px": 96, "n_leg_restricted": null, "e_leg_restricted": null, "s_leg_restricted": null, "w_leg_restricted": null }, "geometry": { "type": "Point", "coordinates": [ -79.408516, 43.704598 ] } },
{ "type": "Feature", "properties": { "intersection_uid": 118, "intersection_name": "Eglinton / Bathurst", "date_installed": "2025-09-09", "date_decommissioned": null, "street_main": "BATHURST ST", "street_cross": "EGLINTON AVE W", "int_id": 13458084, "px": 100, "n_leg_restricted": null, "e_leg_restricted": null, "s_leg_restricted": null, "w_leg_restricted": null }, "geometry": { "type": "Point", "coordinates": [ -79.425561, 43.700992 ] } },
{ "type": "Feature", "properties": { "intersection_uid": 119, "intersection_name": "Eglinton / Keele", "date_installed": "2025-09-10", "date_decommissioned": null, "street_main": "EGLINTON AVE W", "street_cross": "KEELE ST", "int_id": 13460119, "px": 467, "n_leg_restricted": null, "e_leg_restricted": null, "s_leg_restricted": null, "w_leg_restricted": null }, "geometry": { "type": "Point", "coordinates": [ -79.475062, 43.690165 ] } },
{ "type": "Feature", "properties": { "intersection_uid": 120, "intersection_name": "Fleet / Fort York", "date_installed": "2025-09-24", "date_decommissioned": null, "street_main": "FORT YORK BLVD", "street_cross": "FLEET ST", "int_id": 14255084, "px": 1918, "n_leg_restricted": null, "e_leg_restricted": null, "s_leg_restricted": null, "w_leg_restricted": null }, "geometry": { "type": "Point", "coordinates": [ -79.406841, 43.636392 ] } },
{ "type": "Feature", "properties": { "intersection_uid": 121, "intersection_name": "Fleet / Strachan", "date_installed": "2025-11-04", "date_decommissioned": null, "street_main": "STRACHAN AVE", "street_cross": "FLEET ST", "int_id": 13468621, "px": 571, "n_leg_restricted": null, "e_leg_restricted": null, "s_leg_restricted": null, "w_leg_restricted": null }, "geometry": { "type": "Point", "coordinates": [ -79.409631, 43.636255 ] } },
{ "type": "Feature", "properties": { "intersection_uid": 122, "intersection_name": "King / Dufferin", "date_installed": "2025-04-10", "date_decommissioned": null, "street_main": "KING ST W", "street_cross": "DUFFERIN ST", "int_id": 13468374, "px": 539, "n_leg_restricted": null, "e_leg_restricted": null, "s_leg_restricted": null, "w_leg_restricted": null }, "geometry": { "type": "Point", "coordinates": [ -79.427374, 43.63896 ] } },
{ "type": "Feature", "properties": { "intersection_uid": 123, "intersection_name": "The Queensway / 230 M East of The East Mall", "date_installed": "2025-06-17", "date_decommissioned": null, "street_main": "THE QUEENSWAY", "street_cross": "THE EAST MALL", "int_id": 0, "px": 1939, "n_leg_restricted": null, "e_leg_restricted": null, "s_leg_restricted": null, "w_leg_restricted": null }, "geometry": { "type": "Point", "coordinates": [ -79.54347, 43.61714 ] } },
{ "type": "Feature", "properties": { "intersection_uid": 124, "intersection_name": "The Queensway / 240m East of The West Mall", "date_installed": "2024-11-22", "date_decommissioned": null, "street_main": "THE QUEENSWAY", "street_cross": "THE WEST MALL", "int_id": 0, "px": 1832, "n_leg_restricted": null, "e_leg_restricted": null, "s_leg_restricted": null, "w_leg_restricted": null }, "geometry": { "type": "Point", "coordinates": [ -79.56037, 43.61363 ] } },
{ "type": "Feature", "properties": { "intersection_uid": 125, "intersection_name": "The Queensway / 427 Ramp / Sherway Gardens Road", "date_installed": "2024-11-22", "date_decommissioned": null, "street_main": "THE QUEENSWAY", "street_cross": "427 C S QUEENSWAY RAMP", "int_id": 14257757, "px": 887, "n_leg_restricted": null, "e_leg_restricted": null, "s_leg_restricted": null, "w_leg_restricted": null }, "geometry": { "type": "Point", "coordinates": [ -79.552265, 43.615068 ] } },
{ "type": "Feature", "properties": { "intersection_uid": 126, "intersection_name": "The Queensway / North Queen Street / Private Access", "date_installed": "2024-11-22", "date_decommissioned": null, "street_main": "THE QUEENSWAY", "street_cross": "NORTH QUEEN ST", "int_id": 13470082, "px": 917, "n_leg_restricted": null, "e_leg_restricted": null, "s_leg_restricted": null, "w_leg_restricted": null }, "geometry": { "type": "Point", "coordinates": [ -79.556154, 43.614217 ] } },
{ "type": "Feature", "properties": { "intersection_uid": 127, "intersection_name": "The Queensway / 60m East of Algie Ave", "date_installed": "2025-06-17", "date_decommissioned": null, "street_main": "THE QUEENSWAY", "street_cross": "ALGIE AVE", "int_id": 0, "px": 1892, "n_leg_restricted": null, "e_leg_restricted": null, "s_leg_restricted": null, "w_leg_restricted": null }, "geometry": { "type": "Point", "coordinates": [ -79.53625, 43.61885 ] } },
{ "type": "Feature", "properties": { "intersection_uid": 128, "intersection_name": "The Queensway / Atomic Avenue and Private Access", "date_installed": "2025-06-17", "date_decommissioned": null, "street_main": "THE QUEENSWAY", "street_cross": "ATOMIC AVE", "int_id": 13469954, "px": 570, "n_leg_restricted": null, "e_leg_restricted": null, "s_leg_restricted": null, "w_leg_restricted": null }, "geometry": { "type": "Point", "coordinates": [ -79.540867, 43.61774 ] } },
{ "type": "Feature", "properties": { "intersection_uid": 129, "intersection_name": "Bloor / Yonge", "date_installed": "2025-01-09", "date_decommissioned": null, "street_main": "BLOOR ST", "street_cross": "YONGE ST", "int_id": 13463436, "px": 40, "n_leg_restricted": null, "e_leg_restricted": null, "s_leg_restricted": null, "w_leg_restricted": null }, "geometry": { "type": "Point", "coordinates": [ -79.386788, 43.670226 ] } },
{ "type": "Feature", "properties": { "intersection_uid": 130, "intersection_name": "Dundas / Yonge", "date_installed": "2025-01-02", "date_decommissioned": null, "street_main": "YONGE ST", "street_cross": "DUNDAS ST", "int_id": 13465714, "px": 36, "n_leg_restricted": null, "e_leg_restricted": null, "s_leg_restricted": null, "w_leg_restricted": null }, "geometry": { "type": "Point", "coordinates": [ -79.380926, 43.656328 ] } },
{ "type": "Feature", "properties": { "intersection_uid": 131, "intersection_name": "MacPherson / Yonge", "date_installed": "2025-01-02", "date_decommissioned": null, "street_main": "YONGE ST", "street_cross": "MACPHERSON AVE", "int_id": 13461921, "px": 44, "n_leg_restricted": null, "e_leg_restricted": null, "s_leg_restricted": null, "w_leg_restricted": true }, "geometry": { "type": "Point", "coordinates": [ -79.390432, 43.679145 ] } },
{ "type": "Feature", "properties": { "intersection_uid": 132, "intersection_name": "Lawrence / Greenholm", "date_installed": "2025-08-07", "date_decommissioned": null, "street_main": "LAWRENCE AVE E", "street_cross": "GREENCREST CRCT", "int_id": 13448487, "px": 1005, "n_leg_restricted": null, "e_leg_restricted": null, "s_leg_restricted": null, "w_leg_restricted": null }, "geometry": { "type": "Point", "coordinates": [ -79.222982, 43.760312 ] } },
{ "type": "Feature", "properties": { "intersection_uid": 133, "intersection_name": "Lawrence / Fortune Gate", "date_installed": "2025-08-07", "date_decommissioned": null, "street_main": "LAWRENCE AVE E", "street_cross": "FORTUNE GT", "int_id": 13448378, "px": 1468, "n_leg_restricted": null, "e_leg_restricted": null, "s_leg_restricted": true, "w_leg_restricted": null }, "geometry": { "type": "Point", "coordinates": [ -79.219768, 43.761006 ] } },
{ "type": "Feature", "properties": { "intersection_uid": 134, "intersection_name": "Lawrence / Galloway", "date_installed": "2025-08-07", "date_decommissioned": null, "street_main": "LAWRENCE AVE E", "street_cross": "GALLOWAY RD", "int_id": 13447579, "px": 502, "n_leg_restricted": null, "e_leg_restricted": null, "s_leg_restricted": null, "w_leg_restricted": null }, "geometry": { "type": "Point", "coordinates": [ -79.196434, 43.76615 ] } },
{ "type": "Feature", "properties": { "intersection_uid": 135, "intersection_name": "Lawrence / Mossbank", "date_installed": "2025-08-07", "date_decommissioned": null, "street_main": "LAWRENCE AVE E", "street_cross": "MOSSBANK DR", "int_id": 13448109, "px": 1288, "n_leg_restricted": null, "e_leg_restricted": null, "s_leg_restricted": true, "w_leg_restricted": null }, "geometry": { "type": "Point", "coordinates": [ -79.21105, 43.762866 ] } },
{ "type": "Feature", "properties": { "intersection_uid": 136, "intersection_name": "Lawrence / Scarborough Golf Club", "date_installed": "2025-08-07", "date_decommissioned": null, "street_main": "LAWRENCE AVE E", "street_cross": "SCARBOROUGH GOLF CLUB RD", "int_id": 13448254, "px": 397, "n_leg_restricted": null, "e_leg_restricted": null, "s_leg_restricted": null, "w_leg_restricted": null }, "geometry": { "type": "Point", "coordinates": [ -79.215838, 43.761852 ] } },
{ "type": "Feature", "properties": { "intersection_uid": 137, "intersection_name": "Lawrence / Orton Park", "date_installed": "2025-08-07", "date_decommissioned": null, "street_main": "LAWRENCE AVE E", "street_cross": "ORTON PARK RD", "int_id": 13447932, "px": 858, "n_leg_restricted": null, "e_leg_restricted": null, "s_leg_restricted": true, "w_leg_restricted": null }, "geometry": { "type": "Point", "coordinates": [ -79.205628, 43.764049 ] } },
{ "type": "Feature", "properties": { "intersection_uid": 138, "intersection_name": "Lawrence / Overture", "date_installed": "2025-08-07", "date_decommissioned": null, "street_main": "LAWRENCE AVE E", "street_cross": "OVERTURE RD", "int_id": 13447703, "px": 1714, "n_leg_restricted": true, "e_leg_restricted": null, "s_leg_restricted": null, "w_leg_restricted": null }, "geometry": { "type": "Point", "coordinates": [ -79.199472, 43.765447 ] } },
{ "type": "Feature", "properties": { "intersection_uid": 141, "intersection_name": "College / Dufferin", "date_installed": "2026-04-27", "date_decommissioned": null, "street_main": "COLLEGE ST", "street_cross": "DUFFERIN ST", "int_id": 13466425, "px": 605, "n_leg_restricted": null, "e_leg_restricted": null, "s_leg_restricted": null, "w_leg_restricted": null }, "geometry": { "type": "Point", "coordinates": [ -79.432562, 43.652569 ] } },
{ "type": "Feature", "properties": { "intersection_uid": 142, "intersection_name": "Dundas / Dufferin", "date_installed": "2026-04-27", "date_decommissioned": null, "street_main": "DUFFERIN ST", "street_cross": "DUNDAS ST W", "int_id": 13466894, "px": 190, "n_leg_restricted": null, "e_leg_restricted": null, "s_leg_restricted": null, "w_leg_restricted": null }, "geometry": { "type": "Point", "coordinates": [ -79.431453, 43.649651 ] } },
{ "type": "Feature", "properties": { "intersection_uid": 143, "intersection_name": "Dundas / Spadina", "date_installed": "2026-02-13", "date_decommissioned": null, "street_main": "SPADINA AVE", "street_cross": "DUNDAS ST W", "int_id": 13466288, "px": 277, "n_leg_restricted": null, "e_leg_restricted": null, "s_leg_restricted": null, "w_leg_restricted": null }, "geometry": { "type": "Point", "coordinates": [ -79.398049, 43.652944 ] } },
{ "type": "Feature", "properties": { "intersection_uid": 144, "intersection_name": "Queen / Dufferin", "date_installed": "2026-04-27", "date_decommissioned": null, "street_main": "QUEEN ST W", "street_cross": "DUFFERIN ST", "int_id": 13467983, "px": 1329, "n_leg_restricted": null, "e_leg_restricted": null, "s_leg_restricted": null, "w_leg_restricted": null }, "geometry": { "type": "Point", "coordinates": [ -79.428644, 43.642208 ] } },
{ "type": "Feature", "properties": { "intersection_uid": 145, "intersection_name": "Yonge / 280m South of Cummer", "date_installed": "2026-04-22", "date_decommissioned": null, "street_main": "YONGE ST", "street_cross": "OLYMPIC GARDEN DR", "int_id": 13445545, "px": 2177, "n_leg_restricted": null, "e_leg_restricted": null, "s_leg_restricted": null, "w_leg_restricted": null }, "geometry": { "type": "Point", "coordinates": [ -79.416721, 43.784504 ] } },
{ "type": "Feature", "properties": { "intersection_uid": 146, "intersection_name": "Yonge / Athabaska", "date_installed": "2026-04-20", "date_decommissioned": null, "street_main": "YONGE ST", "street_cross": "ATHABASKA AVE", "int_id": 13444177, "px": 1381, "n_leg_restricted": null, "e_leg_restricted": null, "s_leg_restricted": null, "w_leg_restricted": null }, "geometry": { "type": "Point", "coordinates": [ -79.419422, 43.795476 ] } },
{ "type": "Feature", "properties": { "intersection_uid": 147, "intersection_name": "Yonge / Patricia", "date_installed": "2026-04-22", "date_decommissioned": null, "street_main": "YONGE ST", "street_cross": "PATRICIA AVE", "int_id": 13444838, "px": 856, "n_leg_restricted": null, "e_leg_restricted": true, "s_leg_restricted": null, "w_leg_restricted": null }, "geometry": { "type": "Point", "coordinates": [ -79.418134, 43.790252 ] } },
{ "type": "Feature", "properties": { "intersection_uid": 148, "intersection_name": "Yonge / Madawaska", "date_installed": "2026-04-20", "date_decommissioned": null, "street_main": "YONGE ST", "street_cross": "MADAWASKA AVE", "int_id": 13444390, "px": 130, "n_leg_restricted": null, "e_leg_restricted": null, "s_leg_restricted": null, "w_leg_restricted": null }, "geometry": { "type": "Point", "coordinates": [ -79.419014, 43.79381 ] } },
{ "type": "Feature", "properties": { "intersection_uid": 149, "intersection_name": "Yonge / Steeles", "date_installed": "2026-04-17", "date_decommissioned": null, "street_main": "YONGE ST", "street_cross": "STEELES AVE", "int_id": 13443870, "px": 131, "n_leg_restricted": null, "e_leg_restricted": null, "s_leg_restricted": null, "w_leg_restricted": null }, "geometry": { "type": "Point", "coordinates": [ -79.420084, 43.797999 ] } },
{ "type": "Feature", "properties": { "intersection_uid": 150, "intersection_name": "Yonge / Cummer", "date_installed": "2026-04-17", "date_decommissioned": null, "street_main": "YONGE ST", "street_cross": "CUMMER AVE", "int_id": 13445250, "px": 129, "n_leg_restricted": null, "e_leg_restricted": null, "s_leg_restricted": null, "w_leg_restricted": null }, "geometry": { "type": "Point", "coordinates": [ -79.41735, 43.787068 ] } },
{ "type": "Feature", "properties": { "intersection_uid": 151, "intersection_name": "Spadina / College", "date_installed": "2026-05-05", "date_decommissioned": null, "street_main": "SPADINA AVE", "street_cross": "COLLEGE ST", "int_id": 13465489, "px": 279, "n_leg_restricted": null, "e_leg_restricted": null, "s_leg_restricted": null, "w_leg_restricted": null }, "geometry": { "type": "Point", "coordinates": [ -79.400048, 43.657948 ] } },
{ "type": "Feature", "properties": { "intersection_uid": 152, "intersection_name": "Eglinton / Bermondsey", "date_installed": "2026-05-11", "date_decommissioned": null, "street_main": "EGLINTON AVE E", "street_cross": "BERMONDSEY RD", "int_id": 13453963, "px": 455, "n_leg_restricted": null, "e_leg_restricted": null, "s_leg_restricted": null, "w_leg_restricted": null }, "geometry": { "type": "Point", "coordinates": [ -79.313523, 43.726023 ] } },
{ "type": "Feature", "properties": { "intersection_uid": 153, "intersection_name": "Eglinton / Eglinton Sq", "date_installed": "2026-05-11", "date_decommissioned": null, "street_main": "EGLINTON AVE E", "street_cross": "EGLINTON SQ", "int_id": 13454071, "px": 450, "n_leg_restricted": null, "e_leg_restricted": null, "s_leg_restricted": null, "w_leg_restricted": null }, "geometry": { "type": "Point", "coordinates": [ -79.300538, 43.724967 ] } },
{ "type": "Feature", "properties": { "intersection_uid": 154, "intersection_name": "Eglinton / Ionview", "date_installed": "2026-05-12", "date_decommissioned": null, "street_main": "EGLINTON AVE E", "street_cross": "IONVIEW RD", "int_id": 13453001, "px": 459, "n_leg_restricted": null, "e_leg_restricted": null, "s_leg_restricted": null, "w_leg_restricted": null }, "geometry": { "type": "Point", "coordinates": [ -79.27121, 43.731434 ] } },
{ "type": "Feature", "properties": { "intersection_uid": 155, "intersection_name": "Eglinton / Leslie", "date_installed": "2026-05-12", "date_decommissioned": null, "street_main": "EGLINTON AVE E", "street_cross": "LESLIE ST", "int_id": 13455296, "px": 453, "n_leg_restricted": null, "e_leg_restricted": null, "s_leg_restricted": null, "w_leg_restricted": null }, "geometry": { "type": "Point", "coordinates": [ -79.349979, 43.717098 ] } },
{ "type": "Feature", "properties": { "intersection_uid": 156, "intersection_name": "Eglinton / Rosemount", "date_installed": "2026-05-12", "date_decommissioned": null, "street_main": "EGLINTON AVE E", "street_cross": "ROSEMOUNT DR", "int_id": 13453093, "px": 1742, "n_leg_restricted": null, "e_leg_restricted": null, "s_leg_restricted": null, "w_leg_restricted": null }, "geometry": { "type": "Point", "coordinates": [ -79.273889, 43.730845 ] } },
{ "type": "Feature", "properties": { "intersection_uid": 157, "intersection_name": "Eglinton / Warden", "date_installed": "2026-05-12", "date_decommissioned": null, "street_main": "EGLINTON AVE E", "street_cross": "WARDEN AVE", "int_id": 13453588, "px": 456, "n_leg_restricted": null, "e_leg_restricted": null, "s_leg_restricted": null, "w_leg_restricted": null }, "geometry": { "type": "Point", "coordinates": [ -79.287616, 43.727846 ] } },
{ "type": "Feature", "properties": { "intersection_uid": 158, "intersection_name": "Eglinton / Hakimi / Lebovic", "date_installed": "2026-06-02", "date_decommissioned": null, "street_main": "EGLINTON AVE E", "street_cross": "LEBOVIC AVE", "int_id": 14074105, "px": 1791, "n_leg_restricted": null, "e_leg_restricted": null, "s_leg_restricted": null, "w_leg_restricted": null }, "geometry": { "type": "Point", "coordinates": [ -79.291464, 43.726996 ] } },
{ "type": "Feature", "properties": { "intersection_uid": 159, "intersection_name": "Eglinton / Pharmacy", "date_installed": "2026-06-02", "date_decommissioned": null, "street_main": "EGLINTON AVE E", "street_cross": "PHARMACY AVE", "int_id": 13453978, "px": 452, "n_leg_restricted": null, "e_leg_restricted": null, "s_leg_restricted": null, "w_leg_restricted": null }, "geometry": { "type": "Point", "coordinates": [ -79.297515, 43.725651 ] } },
{ "type": "Feature", "properties": { "intersection_uid": 160, "intersection_name": "Eglinton / Sinnott", "date_installed": "2026-06-02", "date_decommissioned": null, "street_main": "EGLINTON AVE E", "street_cross": "SINNOTT RD", "int_id": 13453302, "px": 457, "n_leg_restricted": true, "e_leg_restricted": null, "s_leg_restricted": null, "w_leg_restricted": null }, "geometry": { "type": "Point", "coordinates": [ -79.280725, 43.729364 ] } },
{ "type": "Feature", "properties": { "intersection_uid": 161, "intersection_name": "Eglinton / Victoria Park", "date_installed": "2026-06-02", "date_decommissioned": null, "street_main": "EGLINTON AVE E", "street_cross": "VICTORIA PARK AVE", "int_id": 13454107, "px": 451, "n_leg_restricted": null, "e_leg_restricted": null, "s_leg_restricted": null, "w_leg_restricted": null }, "geometry": { "type": "Point", "coordinates": [ -79.302645, 43.724723 ] } },
{ "type": "Feature", "properties": { "intersection_uid": 162, "intersection_name": "Bremner / Lower Simcoe", "date_installed": "2026-06-11", "date_decommissioned": null, "street_main": "LOWER SIMCOE ST", "street_cross": "BREMNER BLVD", "int_id": 13975105, "px": 2202, "n_leg_restricted": null, "e_leg_restricted": null, "s_leg_restricted": null, "w_leg_restricted": null }, "geometry": { "type": "Point", "coordinates": [ -79.384008, 43.64239 ] } },
{ "type": "Feature", "properties": { "intersection_uid": 163, "intersection_name": "Dufferin / Liberty", "date_installed": "2026-06-10", "date_decommissioned": null, "street_main": "DUFFERIN ST", "street_cross": "LIBERTY ST", "int_id": 13468568, "px": 1449, "n_leg_restricted": null, "e_leg_restricted": null, "s_leg_restricted": null, "w_leg_restricted": null }, "geometry": { "type": "Point", "coordinates": [ -79.426654, 43.637074 ] } },
{ "type": "Feature", "properties": { "intersection_uid": 164, "intersection_name": "Strachan / East Liberty", "date_installed": "2026-06-10", "date_decommissioned": null, "street_main": "STRACHAN AVE", "street_cross": "EAST LIBERTY ST", "int_id": 20111835, "px": 2180, "n_leg_restricted": null, "e_leg_restricted": null, "s_leg_restricted": null, "w_leg_restricted": null }, "geometry": { "type": "Point", "coordinates": [ -79.41087, 43.639284 ] } },
{ "type": "Feature", "properties": { "intersection_uid": 169, "intersection_name": "Steeles / Gihon Spring", "date_installed": "2026-08-06", "date_decommissioned": null, "street_main": "STEELES AVE W", "street_cross": "GIHON SPRING DR", "int_id": 13449352, "px": 2332, "n_leg_restricted": null, "e_leg_restricted": null, "s_leg_restricted": null, "w_leg_restricted": null }, "geometry": { "type": "Point", "coordinates": [ -79.597018, 43.759292 ] } },
{ "type": "Feature", "properties": { "intersection_uid": 170, "intersection_name": "Steeles / Highway 27", "date_installed": "2026-08-06", "date_decommissioned": null, "street_main": "STEELES AVE W", "street_cross": "HIGHWAY 27 N", "int_id": 13449960, "px": 1793, "n_leg_restricted": null, "e_leg_restricted": null, "s_leg_restricted": null, "w_leg_restricted": null }, "geometry": { "type": "Point", "coordinates": [ -79.61409, 43.755454 ] } },
{ "type": "Feature", "properties": { "intersection_uid": 171, "intersection_name": "Steeles / Islington", "date_installed": "2026-08-06", "date_decommissioned": null, "street_main": "STEELES AVE W", "street_cross": "ISLINGTON AVE", "int_id": 13448601, "px": 1208, "n_leg_restricted": null, "e_leg_restricted": null, "s_leg_restricted": null, "w_leg_restricted": null }, "geometry": { "type": "Point", "coordinates": [ -79.574871, 43.764343 ] } },
{ "type": "Feature", "properties": { "intersection_uid": 172, "intersection_name": "Steeles / Kipling", "date_installed": "2026-08-06", "date_decommissioned": null, "street_main": "STEELES AVE W", "street_cross": "KIPLING AVE", "int_id": 13449294, "px": 1256, "n_leg_restricted": null, "e_leg_restricted": null, "s_leg_restricted": null, "w_leg_restricted": null }, "geometry": { "type": "Point", "coordinates": [ -79.589911, 43.759607 ] } },
{ "type": "Feature", "properties": { "intersection_uid": 173, "intersection_name": "Steeles / Martin Grove", "date_installed": "2026-08-06", "date_decommissioned": null, "street_main": "STEELES AVE W", "street_cross": "MARTIN GROVE RD", "int_id": 13449574, "px": 1486, "n_leg_restricted": null, "e_leg_restricted": null, "s_leg_restricted": null, "w_leg_restricted": null }, "geometry": { "type": "Point", "coordinates": [ -79.603381, 43.757861 ] } },
{ "type": "Feature", "properties": { "intersection_uid": 179, "intersection_name": "Danforth / Victoria Park", "date_installed": "2026-08-12", "date_decommissioned": null, "street_main": "DANFORTH AVE", "street_cross": "VICTORIA PARK AVE", "int_id": 13459445, "px": 355, "n_leg_restricted": null, "e_leg_restricted": null, "s_leg_restricted": null, "w_leg_restricted": null }, "geometry": { "type": "Point", "coordinates": [ -79.288358, 43.691232 ] } },
{ "type": "Feature", "properties": { "intersection_uid": 180, "intersection_name": "Denton / Victoria Park", "date_installed": "2026-08-12", "date_decommissioned": null, "street_main": "VICTORIA PARK AVE", "street_cross": "DENTON AVE", "int_id": 13459140, "px": 1447, "n_leg_restricted": null, "e_leg_restricted": null, "s_leg_restricted": null, "w_leg_restricted": true }, "geometry": { "type": "Point", "coordinates": [ -79.289022, 43.692869 ] } }
]
}
